{
  "type": "FeatureCollection",
  "features": [
    {
      "type": "Feature",
      "properties": {
        "norad_id": 66955,
        "name": "HULIANWANG DIGUI-116",
        "group": "last-30-days",
        "lat": -13.29311416101329,
        "lon": 167.29842156731604,
        "alt_km": 1001.0625235105535,
        "timestamp": "2025-12-11T20:41:13.849800+00:00",
        "meta_object_name": "HULIANWANG DIGUI-116",
        "meta_object_id": "2025-287C",
        "meta_epoch": "2025-12-09T09:52:18.926688",
        "meta_mean_motion": 13.69296672,
        "meta_eccentricity": 0.00076324,
        "meta_inclination": 86.4914,
        "meta_ra_of_asc_node": 347.3632,
        "meta_arg_of_pericenter": 209.8722,
        "meta_mean_anomaly": 150.2003,
        "meta_ephemeris_type": 0,
        "meta_classification_type": "U",
        "meta_norad_cat_id": 66955,
        "meta_element_set_no": 999,
        "meta_rev_at_epoch": 7,
        "meta_bstar": 3.470494e-06,
        "meta_mean_motion_dot": 2e-07,
        "meta_mean_motion_ddot": 0,
        "tle_line1": "1 66955U 25287C   25343.41133017  .00000020  00000+0  34705-5 0  9997",
        "tle_line2": "2 66955  86.4914 347.3632 0007632 209.8722 150.2003 13.69296672    70"
      },
      "geometry": {
        "type": "Point",
        "coordinates": [
          167.29842156731604,
          -13.29311416101329
        ]
      }
    },
    {
      "type": "Feature",
      "properties": {
        "norad_id": 66956,
        "name": "HULIANWANG DIGUI-117",
        "group": "last-30-days",
        "lat": -14.387339648592198,
        "lon": 167.3790779400842,
        "alt_km": 1001.1465001773813,
        "timestamp": "2025-12-11T20:41:13.849812+00:00",
        "meta_object_name": "HULIANWANG DIGUI-117",
        "meta_object_id": "2025-287D",
        "meta_epoch": "2025-12-10T08:40:06.191328",
        "meta_mean_motion": 13.69398761,
        "meta_eccentricity": 0.00070713,
        "meta_inclination": 86.4971,
        "meta_ra_of_asc_node": 347.0263,
        "meta_arg_of_pericenter": 199.7388,
        "meta_mean_anomaly": 160.3499,
        "meta_ephemeris_type": 0,
        "meta_classification_type": "U",
        "meta_norad_cat_id": 66956,
        "meta_element_set_no": 999,
        "meta_rev_at_epoch": 20,
        "meta_bstar": 1.0798013e-05,
        "meta_mean_motion_dot": 2.6e-07,
        "meta_mean_motion_ddot": 0,
        "tle_line1": "1 66956U 25287D   25344.36118277  .00000026  00000+0  10798-4 0  9995",
        "tle_line2": "2 66956  86.4971 347.0263 0007071 199.7388 160.3499 13.69398761   201"
      },
      "geometry": {
        "type": "Point",
        "coordinates": [
          167.3790779400842,
          -14.387339648592198
        ]
      }
    },
    {
      "type": "Feature",
      "properties": {
        "norad_id": 66957,
        "name": "HULIANWANG DIGUI-118",
        "group": "last-30-days",
        "lat": -15.528917884339142,
        "lon": 167.45171818826543,
        "alt_km": 1000.9973039097968,
        "timestamp": "2025-12-11T20:41:13.849822+00:00",
        "meta_object_name": "HULIANWANG DIGUI-118",
        "meta_object_id": "2025-287E",
        "meta_epoch": "2025-12-10T08:39:56.683872",
        "meta_mean_motion": 13.69509074,
        "meta_eccentricity": 0.00068996,
        "meta_inclination": 86.4942,
        "meta_ra_of_asc_node": 347.0238,
        "meta_arg_of_pericenter": 197.517,
        "meta_mean_anomaly": 162.5753,
        "meta_ephemeris_type": 0,
        "meta_classification_type": "U",
        "meta_norad_cat_id": 66957,
        "meta_element_set_no": 999,
        "meta_rev_at_epoch": 20,
        "meta_bstar": -0.00019874691,
        "meta_mean_motion_dot": -1.56e-06,
        "meta_mean_motion_ddot": 0,
        "tle_line1": "1 66957U 25287E   25344.36107273 -.00000156  00000+0 -19875-3 0  9990",
        "tle_line2": "2 66957  86.4942 347.0238 0006899 197.5170 162.5753 13.69509074   202"
      },
      "geometry": {
        "type": "Point",
        "coordinates": [
          167.45171818826543,
          -15.528917884339142
        ]
      }
    },
    {
      "type": "Feature",
      "properties": {
        "norad_id": 66958,
        "name": "CZ-6A R/B",
        "group": "last-30-days",
        "lat": 78.84698441820575,
        "lon": 148.3809300734639,
        "alt_km": 826.2313881941345,
        "timestamp": "2025-12-11T20:41:13.849832+00:00",
        "meta_object_name": "CZ-6A R/B",
        "meta_object_id": "2025-287F",
        "meta_epoch": "2025-12-11T15:02:50.182080",
        "meta_mean_motion": 13.9491927,
        "meta_eccentricity": 0.01072101,
        "meta_inclination": 86.5058,
        "meta_ra_of_asc_node": 346.5238,
        "meta_arg_of_pericenter": 105.4934,
        "meta_mean_anomaly": 255.8109,
        "meta_ephemeris_type": 0,
        "meta_classification_type": "U",
        "meta_norad_cat_id": 66958,
        "meta_element_set_no": 999,
        "meta_rev_at_epoch": 38,
        "meta_bstar": 0.00030315333,
        "meta_mean_motion_dot": 4.46e-06,
        "meta_mean_motion_ddot": 0,
        "tle_line1": "1 66958U 25287F   25345.62696970  .00000446  00000+0  30315-3 0  9990",
        "tle_line2": "2 66958  86.5058 346.5238 0107210 105.4934 255.8109 13.94919270   382"
      },
      "geometry": {
        "type": "Point",
        "coordinates": [
          148.3809300734639,
          78.84698441820575
        ]
      }
    },
    {
      "type": "Feature",
      "properties": {
        "norad_id": 66988,
        "name": "YAOGAN-47",
        "group": "last-30-days",
        "lat": -44.01475215949432,
        "lon": -136.35892210507097,
        "alt_km": 503.6930311589131,
        "timestamp": "2025-12-11T20:41:13.849842+00:00",
        "meta_object_name": "YAOGAN-47",
        "meta_object_id": "2025-289A",
        "meta_epoch": "2025-12-11T14:58:29.248032",
        "meta_mean_motion": 15.23120362,
        "meta_eccentricity": 8.58e-05,
        "meta_inclination": 97.5268,
        "meta_ra_of_asc_node": 50.7421,
        "meta_arg_of_pericenter": 73.685,
        "meta_mean_anomaly": 286.448,
        "meta_ephemeris_type": 0,
        "meta_classification_type": "U",
        "meta_norad_cat_id": 66988,
        "meta_element_set_no": 999,
        "meta_rev_at_epoch": 37,
        "meta_bstar": 0.0002492,
        "meta_mean_motion_dot": 5.809e-05,
        "meta_mean_motion_ddot": 0,
        "tle_line1": "1 66988U 25289A   25345.62394963  .00005809  00000+0  24920-3 0  9995",
        "tle_line2": "2 66988  97.5268  50.7421 0000858  73.6850 286.4480 15.23120362   372"
      },
      "geometry": {
        "type": "Point",
        "coordinates": [
          -136.35892210507097,
          -44.01475215949432
        ]
      }
    },
    {
      "type": "Feature",
      "properties": {
        "norad_id": 66989,
        "name": "CZ-4B R/B",
        "group": "last-30-days",
        "lat": -71.51437449901873,
        "lon": -152.15533525312213,
        "alt_km": 415.6506134356514,
        "timestamp": "2025-12-11T20:41:13.849852+00:00",
        "meta_object_name": "CZ-4B R/B",
        "meta_object_id": "2025-289B",
        "meta_epoch": "2025-12-10T14:28:25.343040",
        "meta_mean_motion": 15.66312523,
        "meta_eccentricity": 0.01519273,
        "meta_inclination": 97.5247,
        "meta_ra_of_asc_node": 49.7881,
        "meta_arg_of_pericenter": 11.1182,
        "meta_mean_anomaly": 349.3371,
        "meta_ephemeris_type": 0,
        "meta_classification_type": "U",
        "meta_norad_cat_id": 66989,
        "meta_element_set_no": 999,
        "meta_rev_at_epoch": 23,
        "meta_bstar": 0.00028721477,
        "meta_mean_motion_dot": 0.00055635,
        "meta_mean_motion_ddot": 3.061406e-06,
        "tle_line1": "1 66989U 25289B   25344.60307110  .00055635  30614-5  28721-3 0  9996",
        "tle_line2": "2 66989  97.5247  49.7881 0151927  11.1182 349.3371 15.66312523   239"
      },
      "geometry": {
        "type": "Point",
        "coordinates": [
          -152.15533525312213,
          -71.51437449901873
        ]
      }
    },
    {
      "type": "Feature",
      "properties": {
        "norad_id": 66990,
        "name": "TJS-22",
        "group": "last-30-days",
        "lat": 15.404256979285798,
        "lon": -10.55086294943963,
        "alt_km": 18562.44822419614,
        "timestamp": "2025-12-11T20:41:13.849864+00:00",
        "meta_object_name": "TJS-22",
        "meta_object_id": "2025-290A",
        "meta_epoch": "2025-12-10T07:11:32.845344",
        "meta_mean_motion": 2.15443148,
        "meta_eccentricity": 0.6664534,
        "meta_inclination": 20.1261,
        "meta_ra_of_asc_node": 301.1464,
        "meta_arg_of_pericenter": 180.6877,
        "meta_mean_anomaly": 177.6237,
        "meta_ephemeris_type": 0,
        "meta_classification_type": "U",
        "meta_norad_cat_id": 66990,
        "meta_element_set_no": 999,
        "meta_rev_at_epoch": 3,
        "meta_bstar": 0.079788243,
        "meta_mean_motion_dot": -3.8e-07,
        "meta_mean_motion_ddot": 0,
        "tle_line1": "1 66990U 25290A   25344.29968571 -.00000038  00000+0  79788-1 0  9994",
        "tle_line2": "2 66990  20.1261 301.1464 6664534 180.6877 177.6237  2.15443148    32"
      },
      "geometry": {
        "type": "Point",
        "coordinates": [
          -10.55086294943963,
          15.404256979285798
        ]
      }
    }
  ]
}